NORAD_CAT_ID,OBJECT_NAME,OBJECT_TYPE,EPOCH,MEAN_MOTION,ECCENTRICITY,INCLINATION,RA_OF_ASC_NODE,ARG_OF_PERICENTER,MEAN_ANOMALY,BSTAR,MEAN_MOTION_DOT,MEAN_MOTION_DDOT,TLE_LINE0,TLE_LINE1,TLE_LINE2,SEMIMAJOR_AXIS,PERIOD,APOGEE,PERIGEE,DECAYED
55675.0,STARLINK-5232,PAYLOAD,2024-08-18 04:34:44,14.98334097,0.0002442,70.0012,157.6523,266.5287,93.5593,-0.00014585,-1.833e-05,0.0,0 STARLINK-5232,1 55675U 23021AZ  24231.19079681 -.00001833  00000-0 -14585-3 0  9992,2 55675  70.0012 157.6523 0002442 266.5287  93.5593 14.98334097 83831,6950.18,96.107,573.742,570.348,0.0
55675.0,STARLINK-5232,PAYLOAD,2024-08-18 22:12:13,14.98335767,0.0002837,70.0001,155.8029,263.7128,96.3708,-6.8925e-05,-9.15e-06,0.0,0 STARLINK-5232,1 55675U 23021AZ  24231.92515108 -.00000915  00000-0 -68925-4 0  9990,2 55675  70.0001 155.8029 0002837 263.7128  96.3708 14.98335767 84241,6950.175,96.107,574.012,570.068,0.0
55675.0,STARLINK-5232,PAYLOAD,2024-08-19 04:36:44,14.98338984,0.0002547,70.0005,155.1286,260.5716,99.5156,2.5068e-05,2.06e-06,0.0,0 STARLINK-5232,1 55675U 23021AZ  24232.19218616  .00000206  00000-0  25068-4 0  9996,2 55675  70.0005 155.1286 0002547 260.5716  99.5156 14.98338984 83985,6950.165,96.106,573.8,570.26,0.0
55675.0,STARLINK-5232,PAYLOAD,2024-08-19 12:37:25,14.98335256,0.0002559,70.001,154.2877,268.7572,91.3293,-5.9307e-05,-8.01e-06,0.0,0 STARLINK-5232,1 55675U 23021AZ  24232.52599001 -.00000801  00000-0 -59307-4 0  9999,2 55675  70.0010 154.2877 0002559 268.7572  91.3293 14.98335256 84331,6950.177,96.107,573.82,570.263,0.0
55675.0,STARLINK-5232,PAYLOAD,2024-08-19 19:01:58,14.98325696,0.0002402,70.0013,153.6145,269.3779,90.7105,6.4309e-05,6.74e-06,0.0,0 STARLINK-5232,1 55675U 23021AZ  24232.79303516  .00000674  00000-0  64309-4 0  9996,2 55675  70.0013 153.6145 0002402 269.3779  90.7105 14.98325696 84071,6950.206,96.107,573.741,570.402,0.0
55675.0,STARLINK-5232,PAYLOAD,2024-08-20 04:38:46,14.98325814,0.0002572,70.001,152.6054,269.0998,90.9866,4.127e-05,3.99e-06,0.0,0 STARLINK-5232,1 55675U 23021AZ  24233.19359661  .00000399  00000-0  41270-4 0  9999,2 55675  70.0010 152.6054 0002572 269.0998  90.9866 14.98325814 84432,6950.206,96.107,573.858,570.283,0.0
55675.0,STARLINK-5232,PAYLOAD,2024-08-20 20:40:06,14.98331236,0.000259,70.0009,150.9226,269.415,90.6713,0.00010231,1.128e-05,0.0,0 STARLINK-5232,1 55675U 23021AZ  24233.86119151  .00001128  00000-0  10231-3 0  9994,2 55675  70.0009 150.9226 0002590 269.4150  90.6713 14.98331236 84237,6950.189,96.107,573.854,570.254,0.0
55675.0,STARLINK-5232,PAYLOAD,2024-08-21 04:40:47,14.98298624,0.000235,70.0009,150.0811,266.6748,93.4142,0.0008019,9.48e-05,0.0,0 STARLINK-5232,1 55675U 23021AZ  24234.19499712  .00009480  00000-0  80190-3 0  9995,2 55675  70.0009 150.0811 0002350 266.6748  93.4142 14.98298624 84289,6950.29,96.109,573.788,570.522,0.0
55675.0,STARLINK-5232,PAYLOAD,2024-08-21 20:42:08,14.98326138,0.0002582,70.0008,148.3981,270.296,89.7904,6.0701e-05,6.31e-06,0.0,0 STARLINK-5232,1 55675U 23021AZ  24234.86259469  .00000631  00000-0  60701-4 0  9998,2 55675  70.0008 148.3981 0002582 270.2960  89.7904 14.98326138 84387,6950.205,96.107,573.864,570.275,0.0
